[
    {
        "Altitude(m)": 604969.0890441132,
        "Argument of Periapsis(deg)": 0.0,
        "Eccentricity": 0.0,
        "Inclination(deg)": 60.0,
        "Latitude(deg)": -0.09258368112567696,
        "Longitude(deg)": 154.97752747802173,
        "Mean Anomaly(deg)": 0.0,
        "RAAN(deg)": 255.0,
        "Satellite Name": "Test1 1122",
        "Satellite Number": 1122,
        "Semi-Major Axis(m)": 6980739.136638005,
        "Time(s)": 0
    },
    {
        "Altitude(m)": 604900.0290764888,
        "Argument of Periapsis(deg)": 0.00010418945913296404,
        "Eccentricity": 0.0,
        "Inclination(deg)": 60.0,
        "Latitude(deg)": 0.4478418412552649,
        "Longitude(deg)": 155.24565125067687,
        "Mean Anomaly(deg)": 0.620106145461853,
        "RAAN(deg)": 254.99957995086027,
        "Satellite Name": "Test1 1122",
        "Satellite Number": 1122,
        "Semi-Major Axis(m)": 6980739.136638005,
        "Time(s)": 10
    }
]